EAGLET-I                
1 43790U 18099AJ  26068.68676861  .00006017  00000+0  35262-3 0  9994
2 43790  97.4369 120.9821 0010486 336.8524  23.2233 15.12108144397298
STARLINK-1451           
1 45668U 20035M   26068.41602570  .00032913  00000+0  20090-2 0  9996
2 45668  53.0538  67.2968 0001729  37.5648 322.5463 15.10044289318703
